ENDUROSAT ONE           
1 43551U 98067NZ  20285.71378966  .01221280  11828-4  67159-3 0  9993
2 43551  51.6220  26.8374 0010369 339.6399  20.4204 16.18703658128881
EQUISAT                 
1 43552U 98067PA  20285.77083057  .00056877  00000-0  26124-3 0  9994
2 43552  51.6298  47.9230 0002360 240.5218 119.5549 15.83067793128576
AEROCUBE 12A            
1 43556U 18046C   20285.44303865  .00002098  00000-0  83057-4 0  9998
2 43556  51.6397 268.1090 0008123 355.9040   4.1873 15.30155974125137
AEROCUBE 12B            
1 43557U 18046D   20285.39604972  .00000871  00000-0  42068-4 0  9990
2 43557  51.6417 269.2785 0008228 355.1973   4.8928 15.29828818125069
UITMSAT-1               
1 43589U 98067PD  20285.77481951  .00109249  15571-4  34277-3 0  9992
2 43589  51.6310  41.7044 0004169 302.4510  57.6093 15.91300202124394
MAYA-1                  
1 43590U 98067PE  20285.70364761  .00115976  16129-4  36284-3 0  9990
2 43590  51.6257  41.9107 0003941 304.3902  55.6732 15.91322161124319
BHUTAN-1                
1 43591U 98067PF  20285.72137025  .00114357  16030-4  34939-3 0  9992
2 43591  51.6315  41.4365 0004246 303.1401  56.9198 15.91786662124327
SIRIUSSAT-1             
1 43595U 98067PG  20285.74311567  .00055354  00000-0  23108-3 0  9996
2 43595  51.6291  49.7788 0002535 215.8256 144.3026 15.85091830123397
SIRIUSSAT-2             
1 43596U 98067PH  20285.74956447  .00104430  00000-0  43069-3 0  9997
2 43596  51.6206  50.5984 0003979 322.3745  37.6824 15.85090347123383
SURFSAT                 
1 43614U 18070B   20285.82687278  .00002785  00000-0  70385-4 0  9998
2 43614  93.0288 202.7667 0012217 242.3624 117.6390 15.39800914116382
CP7 (DAVE)              
1 43615U 18070C   20285.74038051  .00002578  00000-0  65555-4 0  9992
2 43615  93.0290 202.7137 0012399 242.3959 117.6037 15.39620868116364
ELFIN-B                 
1 43616U 18070D   20285.86485962  .00003934  00000-0  94715-4 0  9990
2 43616  93.0247 202.7509 0012567 242.7926 117.2049 15.41246170116446
ELFIN-A                 
1 43617U 18070E   20285.81723939  .00004192  00000-0  10009-3 0  9995
2 43617  93.0300 203.3424 0012032 238.3839 121.6243 15.41502098116440
CUBEBEL-1 (BSUSAT-1)    
1 43666U 18083E   20285.89047545  .00000953  00000-0  49486-4 0  9996
2 43666  97.4824 311.1761 0013906 321.1717 161.2899 15.18475451108288
CICERO 10               
1 43690U 18088A   20285.66556786  .00000960  00000-0  42181-4 0  9998
2 43690  85.0414   1.7431 0012895 239.0609 120.9365 15.20418821106416
IRVINE01                
1 43693U 18088D   20285.71461759  .00002188  00000-0  90051-4 0  9995
2 43693  85.0385   0.0306 0016291 216.4109 143.6027 15.23388671106540
PROXIMA I               
1 43694U 18088E   20285.65586218  .00000949  00000-0  39458-4 0  9994
2 43694  85.0356 359.9889 0017918 210.0137 150.0079 15.22167773106523
PROXIMA II              
1 43696U 18088G   20285.71971588  .00000957  00000-0  39808-4 0  9999
2 43696  85.0357 359.9516 0017959 209.7073 150.3151 15.22168733106523
FACSAT-1                
1 43721U 18096C   20285.90813924  .00001583  00000-0  61257-4 0  9996
2 43721  97.4112 358.8157 0019154  72.7923  15.1554 15.27541637104164
CENTAURI-2              
1 43722U 18096D   20285.80897754  .00001977  00000-0  74401-4 0  9991
2 43722  97.4132 359.1132 0018930  73.1880 287.1434 15.28175921104160
INNOSAT-2               
1 43738U 18096V   20285.91179235  .00002988  00000-0  10173-3 0  9995
2 43738  97.4154   1.6883 0024729  76.3765  14.0160 15.30929103104348
SIRION PATHFINDER-2     
1 43759U 18099B   20285.94810266  .00000305  00000-0  32782-4 0  9992
2 43759  97.6955 355.5606 0014916 148.5239 211.6901 14.95324622101341
CORVUS-BC 4             
1 43767U 18099K   20285.79863960  .00000625  00000-0  62688-4 0  9996
2 43767  97.6923 354.6974 0012367 153.0742 207.1078 14.94769427101284
MOVE-II                 
1 43780U 18099Y   20285.74881435  .00000950  00000-0  90816-4 0  9998
2 43780  97.6967 355.3380 0014179 160.3197 199.8574 14.95511096101291
SPACEBEE-7              
1 43816U 18099BL  20285.86669130  .00000470  00000-0  47193-4 0  9994
2 43816  97.6976 355.9153 0014349 145.6372 214.5780 14.95783506100891
SPACEBEE-5              
1 43817U 18099BM  20285.90184278  .00000888  00000-0  83102-4 0  9998
2 43817  97.7045 356.5979 0014146 144.5960 215.6204 14.96524961100925
SPACEBEE-6              
1 43818U 18099BN  20285.74712162  .00001051  00000-0  98684-4 0  9994
2 43818  97.6997 355.9982 0014433 145.3820 214.8344 14.96012379101035
SHIELDS 1               
1 43850U 18104B   20285.55256857  .00000490  00000-0  19932-4 0  9995
2 43850  85.0254  98.5955 0015240  12.5487 347.6130 15.21482600101124
STF-1                   
1 43852U 18104D   20285.89808690  .00001139  00000-0  48711-4 0  9990
2 43852  85.0295  98.9783 0015418  25.1657 335.0333 15.21505191101150
ZACUBE-2                
1 43907U 18111AH  20285.76664257  .00000646  00000-0  28760-4 0  9998
2 43907  97.2520 181.9471 0023245  91.8720 352.6265 15.24709396 99737
LUME 1                  
1 43908U 18111AJ  20285.76877661  .00001010  00000-0  42664-4 0  9999
2 43908  97.2522 182.2071 0022895  91.6059 268.7802 15.25263416 99758
AOBA VELOX-IV           
1 43940U 19003J   20285.83219702  .00001858  00000-0  75768-4 0  9991
2 43940  97.2156 333.0637 0023971 167.4505 192.7336 15.25414616 96389
CATSAT-2                
1 44029U 98067PV  20285.88329064  .00021067  00000-0  17831-3 0  9995
2 44029  51.6376  84.2495 0003302 183.9738 176.1233 15.69669725 96787
DELPHINI                
1 44030U 98067PW  20285.87159907  .00031939  00000-0  24882-3 0  9996
2 44030  51.6323  81.7375 0003045 186.6242 173.4716 15.71409286 96787
UNITE                   
1 44031U 98067PX  20285.85206142  .00012109  00000-0  13296-3 0  9994
2 44031  51.6365  94.5100 0002989 158.6380 201.4740 15.63661400 96610
CATSAT-1                
1 44033U 98067PZ  20285.88316828  .00021715  00000-0  18361-3 0  9993
2 44033  51.6379  84.2579 0003337 183.0972 177.0005 15.69672456 96699
RAAVANA-1               
1 44329U 98067QE  20285.92393923  .00013443  00000-0  16643-3 0  9997
2 44329  51.6376 109.3223 0005321  85.8653 274.2948 15.60410009 75170
UGUISU                  
1 44330U 98067QF  20285.87975355  .00013044  00000-0  16241-3 0  9999
2 44330  51.6357 109.7452 0005305  85.4343 274.7256 15.60291209 75146
NEPALISAT-1             
1 44331U 98067QG  20285.91521941  .00013512  00000-0  16718-3 0  9992
2 44331  51.6358 109.2340 0005312  88.8513 271.3089 15.60419892 75162
SPOOQY-1                
1 44332U 98067QH  20285.73527538  .00012803  00000-0  15973-3 0  9995
2 44332  51.6367 110.2906 0004572  92.0003 268.1514 15.60259513 75092
SPACEBEE-9              
1 44370U 19037F   20285.91296621  .00009319  00000-0  19792-3 0  9994
2 44370  45.0052 183.7940 0012924 158.8437 201.2989 15.45326032 72609
SPACEBEE-8              
1 44371U 19037G   20285.86228271  .00021263  00000-0  35366-3 0  9992
2 44371  45.0053 173.2949 0012170 170.4745 189.6380 15.51673152 72721
IOD-1 GEMS              
1 44385U 98067QK  20285.87584032  .00023200  00000-0  24075-3 0  9996
2 44385  51.6378 105.2968 0001090  42.1779 317.9299 15.64538012 72696
MOVE-IIB                
1 44398U 19038N   20285.92861707  .00001543  00000-0  91505-4 0  9993
2 44398  97.5484 245.7680 0026748  85.7679 274.6602 15.12583615 70188
SONATE                  
1 44400U 19038Q   20285.92988554  .00000689  00000-0  43551-4 0  9995
2 44400  97.5529 245.7727 0026869  84.9860 275.4430 15.12069637 70171
LUCKY-7                 
1 44406U 19038W   20285.85824443  .00000658  00000-0  41451-4 0  9992
2 44406  97.5535 245.8473 0026282  85.2038 275.2192 15.12356812 70169
BEESAT 9                
1 44412U 19038AC  20285.84921522  .00000944  00000-0  57694-4 0  9998
2 44412  97.5524 245.8223 0024339  90.4859 269.9160 15.12482333 69865
JAISAT-1                
1 44419U 19038F   20285.89845211  .00000947  00000-0  57133-4 0  9991
2 44419  97.5526 246.2239 0023177  89.2728 271.1158 15.12966711 70205
SWIATOWID               
1 44426U 98067QL  20285.88760427  .00030350  00000-0  29230-3 0  9999
2 44426  51.6384 103.5387 0001396  57.5041  83.8561 15.66257547 72724
KRAKSAT                 
1 44427U 98067QM  20285.93844894  .00008767  00000-0  12231-3 0  9997
2 44427  51.6411 114.3895 0003047  45.0924 110.8650 15.57750974 72628
VCC A                   
1 44428U 98067QN  20285.71152429  .00011406  00000-0  14644-3 0  9994
2 44428  51.6383 112.4528 0002117  67.3053 292.8164 15.59632712 72639
ENTRYSAT                
1 44429U 98067QP  20285.91002440  .00015897  00000-0  18988-3 0  9997
2 44429  51.6366 109.2339 0001586  64.5779 295.5378 15.61199080 72690
VCC C                   
1 44430U 98067QQ  20285.90092653  .00022644  00000-0  24764-3 0  9990
2 44430  51.6364 106.9292 0001286  92.2924 267.8218 15.63213960 71554
VCC B                   
1 44431U 98067QR  20285.77113104  .00011550  00000-0  14773-3 0  9994
2 44431  51.6370 112.0722 0002215  68.3463 291.7766 15.59718392 72585
ATL-1                   
1 44830U 19084G   20283.37625441  .14504533  23319-5  28099-3 0  9997
2 44830  96.9282 155.2233 0011473 239.9810 120.0357 16.46538413 48546
SMOG-P                  
1 44832U 19084J   20272.06303716  .11453400  23230-5  63587-3 0  9997
2 44832  96.9437 144.0914 0010614 231.8961 128.1384 16.41416157 46773
DUCHIFAT-3              
1 44854U 19089C   20285.85600562  .00000366  00000-0  35943-4 0  9994
2 44854  36.9660 130.3985 0009542 288.0913  71.8783 14.99151522 45773
EYESAT-NANO             
1 44877U 19092E   20285.56990824  .00001005  00000-0  54140-4 0  9995
2 44877  97.4574 106.9838 0013085 341.8215  18.2549 15.17043242 45191
ORBITAL FACTORY 2 (OF-2)
1 45113U 19071C   20285.93594354  .00002324  00000-0  81355-4 0  9998
2 45113  51.6422 160.6919 0013530 116.2911 243.9462 15.33794432 39004
